{
"type": "FeatureCollection",
"name": "rainfall",
"crs": { "type": "name", "properties": { "name": "urn:ogc:def:crs:OGC:1.3:CRS84" } },
"features": [
{ "type": "Feature", "properties": { "time": "2026-04-16T05:00:00", "rain_24h_mm": 40.0, "station_name_en": null, "station_code": "STN0581", "lat": 6.665852, "lon": 100.318785, "district": "Sadao District", "subdistrict": "Padang Besar", "province": "Songkhla" }, "geometry": { "type": "Point", "coordinates": [ 100.318785, 6.665852 ] } },
{ "type": "Feature", "properties": { "time": "2026-04-16T06:00:00", "rain_24h_mm": 36.4, "station_name_en": "Khao Nam Khang National Park Office", "station_code": "MOU138", "lat": 6.600056, "lon": 100.58906, "district": "Sadao District", "subdistrict": "Samnak Taeo", "province": "Songkhla" }, "geometry": { "type": "Point", "coordinates": [ 100.58906, 6.600056 ] } },
{ "type": "Feature", "properties": { "time": "2026-04-16T05:00:00", "rain_24h_mm": 31.0, "station_name_en": null, "station_code": "STN1714", "lat": 6.640181, "lon": 100.619208, "district": "Na Thawi District", "subdistrict": "Khlong Kwang", "province": "Songkhla" }, "geometry": { "type": "Point", "coordinates": [ 100.619208, 6.640181 ] } },
{ "type": "Feature", "properties": { "time": "2026-04-16T05:00:00", "rain_24h_mm": 23.0, "station_name_en": null, "station_code": "STN0133", "lat": 6.524475, "lon": 100.657403, "district": "Na Thawi District", "subdistrict": "Thap Chang", "province": "Songkhla" }, "geometry": { "type": "Point", "coordinates": [ 100.657403, 6.524475 ] } },
{ "type": "Feature", "properties": { "time": "2026-04-16T05:00:00", "rain_24h_mm": 14.5, "station_name_en": null, "station_code": "STN0292", "lat": 6.487867, "lon": 100.672471, "district": "Na Thawi District", "subdistrict": "Prakop", "province": "Songkhla" }, "geometry": { "type": "Point", "coordinates": [ 100.672471, 6.487867 ] } },
{ "type": "Feature", "properties": { "time": "2026-04-16T05:00:00", "rain_24h_mm": 10.0, "station_name_en": null, "station_code": "ridtele_STN05", "lat": 6.975436, "lon": 100.36767, "district": "Hat Yai District", "subdistrict": "Khuan Lang", "province": "Songkhla" }, "geometry": { "type": "Point", "coordinates": [ 100.36767, 6.975436 ] } },
{ "type": "Feature", "properties": { "time": "2026-04-16T06:00:00", "rain_24h_mm": 9.0, "station_name_en": "Song Khla Lake 2", "station_code": "SLA002", "lat": 6.93123, "lon": 100.43991, "district": "Khlong Hoi Khong District", "subdistrict": "Thung Lan", "province": "Songkhla" }, "geometry": { "type": "Point", "coordinates": [ 100.43991, 6.93123 ] } },
{ "type": "Feature", "properties": { "time": "2026-04-16T04:00:00", "rain_24h_mm": 8.6, "station_name_en": "HAT YAI AIRPORT", "station_code": "48569", "lat": 6.916667, "lon": 100.433333, "district": "Khlong Hoi Khong District", "subdistrict": "Thung Lan", "province": "Songkhla" }, "geometry": { "type": "Point", "coordinates": [ 100.433333, 6.916667 ] } },
{ "type": "Feature", "properties": { "time": "2026-04-16T05:00:00", "rain_24h_mm": 4.0, "station_name_en": null, "station_code": "STN0708", "lat": 6.788918, "lon": 100.625724, "district": "Na Thawi District", "subdistrict": "Khlong Sai", "province": "Songkhla" }, "geometry": { "type": "Point", "coordinates": [ 100.625724, 6.788918 ] } },
{ "type": "Feature", "properties": { "time": "2026-04-16T06:00:00", "rain_24h_mm": 3.8, "station_name_en": "Sa Dao", "station_code": "TSDO", "lat": 6.638333, "lon": 100.424805, "district": "Sadao District", "subdistrict": "Sadao", "province": "Songkhla" }, "geometry": { "type": "Point", "coordinates": [ 100.424805, 6.638333 ] } },
{ "type": "Feature", "properties": { "time": "2026-04-16T05:00:00", "rain_24h_mm": 3.5, "station_name_en": null, "station_code": "STN1607", "lat": 6.547067, "lon": 100.734004, "district": "Na Thawi District", "subdistrict": "Sathon", "province": "Songkhla" }, "geometry": { "type": "Point", "coordinates": [ 100.734004, 6.547067 ] } },
{ "type": "Feature", "properties": { "time": "2026-04-16T05:00:00", "rain_24h_mm": 3.0, "station_name_en": null, "station_code": "STN1799", "lat": 6.835284, "lon": 100.498648, "district": "Hat Yai District", "subdistrict": "Phatong", "province": "Songkhla" }, "geometry": { "type": "Point", "coordinates": [ 100.498648, 6.835284 ] } },
{ "type": "Feature", "properties": { "time": "2026-04-16T05:00:00", "rain_24h_mm": 2.5, "station_name_en": null, "station_code": "STN1692", "lat": 6.696497, "lon": 100.586443, "district": "Na Thawi District", "subdistrict": "Khlong Sai", "province": "Songkhla" }, "geometry": { "type": "Point", "coordinates": [ 100.586443, 6.696497 ] } },
{ "type": "Feature", "properties": { "time": "2026-04-16T05:00:00", "rain_24h_mm": 1.5, "station_name_en": null, "station_code": "STN0845", "lat": 6.741373, "lon": 100.694815, "district": "Na Thawi District", "subdistrict": "Na Thawi", "province": "Songkhla" }, "geometry": { "type": "Point", "coordinates": [ 100.694815, 6.741373 ] } },
{ "type": "Feature", "properties": { "time": "2026-04-16T05:00:00", "rain_24h_mm": 1.5, "station_name_en": null, "station_code": "STN1024", "lat": 6.756746, "lon": 100.533575, "district": "Sadao District", "subdistrict": "Khao Mi Kiat", "province": "Songkhla" }, "geometry": { "type": "Point", "coordinates": [ 100.533575, 6.756746 ] } },
{ "type": "Feature", "properties": { "time": "2026-04-16T06:00:00", "rain_24h_mm": 0.6, "station_name_en": "Na Tawi", "station_code": "JNA002", "lat": 6.738093, "lon": 100.693245, "district": "Na Thawi District", "subdistrict": "Na Thawi", "province": "Songkhla" }, "geometry": { "type": "Point", "coordinates": [ 100.693245, 6.738093 ] } },
{ "type": "Feature", "properties": { "time": "2026-04-16T05:50:00", "rain_24h_mm": 0.6, "station_name_en": null, "station_code": "TF43", "lat": 6.63612, "lon": 100.43751, "district": "Sadao District", "subdistrict": "Samnak Taeo", "province": "Songkhla" }, "geometry": { "type": "Point", "coordinates": [ 100.43751, 6.63612 ] } },
{ "type": "Feature", "properties": { "time": "2026-04-16T05:00:00", "rain_24h_mm": 0.5, "station_name_en": null, "station_code": "STN0507", "lat": 6.585939, "lon": 100.672797, "district": "Na Thawi District", "subdistrict": "Thap Chang", "province": "Songkhla" }, "geometry": { "type": "Point", "coordinates": [ 100.672797, 6.585939 ] } },
{ "type": "Feature", "properties": { "time": "2026-04-16T06:00:00", "rain_24h_mm": 0.4, "station_name_en": "Songkhla Lake 1", "station_code": "SLA001", "lat": 6.98013, "lon": 100.46322, "district": "Hat Yai District", "subdistrict": "Kho Hong", "province": "Songkhla" }, "geometry": { "type": "Point", "coordinates": [ 100.46322, 6.98013 ] } },
{ "type": "Feature", "properties": { "time": "2026-04-16T06:00:00", "rain_24h_mm": 0.2, "station_name_en": "Songkhla Lake 3", "station_code": "SLA003", "lat": 6.79667, "lon": 100.44239, "district": "Sadao District", "subdistrict": "Tha Pho", "province": "Songkhla" }, "geometry": { "type": "Point", "coordinates": [ 100.44239, 6.79667 ] } },
{ "type": "Feature", "properties": { "time": "2026-04-16T05:00:00", "rain_24h_mm": 0.0, "station_name_en": null, "station_code": "STN0505", "lat": 6.732478, "lon": 100.800317, "district": "Na Thawi District", "subdistrict": "Na Thawi", "province": "Songkhla" }, "geometry": { "type": "Point", "coordinates": [ 100.800317, 6.732478 ] } },
{ "type": "Feature", "properties": { "time": "2026-04-16T05:00:00", "rain_24h_mm": 0.0, "station_name_en": null, "station_code": "STN0152", "lat": 6.774554, "lon": 100.230542, "district": "Sadao District", "subdistrict": "Padang Besar", "province": "Songkhla" }, "geometry": { "type": "Point", "coordinates": [ 100.230542, 6.774554 ] } },
{ "type": "Feature", "properties": { "time": "2026-04-16T05:00:00", "rain_24h_mm": 0.0, "station_name_en": null, "station_code": "STN0580", "lat": 7.040102, "lon": 100.536696, "district": "Hat Yai District", "subdistrict": "Thung Yai", "province": "Songkhla" }, "geometry": { "type": "Point", "coordinates": [ 100.536696, 7.040102 ] } },
{ "type": "Feature", "properties": { "time": "2026-04-16T05:00:00", "rain_24h_mm": 0.0, "station_name_en": null, "station_code": "STN1025", "lat": 6.982842, "lon": 100.328587, "district": "Hat Yai District", "subdistrict": "Thung Tam Sao", "province": "Songkhla" }, "geometry": { "type": "Point", "coordinates": [ 100.328587, 6.982842 ] } },
{ "type": "Feature", "properties": { "time": "2026-04-16T05:00:00", "rain_24h_mm": 0.0, "station_name_en": null, "station_code": "STN0710", "lat": 7.097187, "lon": 100.537102, "district": "Hat Yai District", "subdistrict": "Nam Noi", "province": "Songkhla" }, "geometry": { "type": "Point", "coordinates": [ 100.537102, 7.097187 ] } },
{ "type": "Feature", "properties": { "time": "2026-04-16T04:00:00", "rain_24h_mm": 0.0, "station_name_en": "KHO HONG AGROMET.", "station_code": "48571", "lat": 7.0, "lon": 100.5, "district": "Hat Yai District", "subdistrict": "Kho Hong", "province": "Songkhla" }, "geometry": { "type": "Point", "coordinates": [ 100.5, 7.0 ] } },
{ "type": "Feature", "properties": { "time": "2026-04-16T04:00:00", "rain_24h_mm": 0.0, "station_name_en": "SA DAO", "station_code": "48574", "lat": 6.798056, "lon": 100.390556, "district": "Sadao District", "subdistrict": "Tha Pho", "province": "Songkhla" }, "geometry": { "type": "Point", "coordinates": [ 100.390556, 6.798056 ] } },
{ "type": "Feature", "properties": { "time": "2026-04-16T05:00:00", "rain_24h_mm": 0.0, "station_name_en": null, "station_code": "STN1595", "lat": 6.695564, "lon": 100.521218, "district": "Sadao District", "subdistrict": "Prik", "province": "Songkhla" }, "geometry": { "type": "Point", "coordinates": [ 100.521218, 6.695564 ] } },
{ "type": "Feature", "properties": { "time": "2026-04-16T05:00:00", "rain_24h_mm": 0.0, "station_name_en": null, "station_code": "STN1605", "lat": 6.526957, "lon": 100.512131, "district": "Sadao District", "subdistrict": "Samnak Taeo", "province": "Songkhla" }, "geometry": { "type": "Point", "coordinates": [ 100.512131, 6.526957 ] } },
{ "type": "Feature", "properties": { "time": "2026-04-16T05:00:00", "rain_24h_mm": 0.0, "station_name_en": null, "station_code": "STN1621", "lat": 6.815911, "lon": 100.554191, "district": "Hat Yai District", "subdistrict": "Phatong", "province": "Songkhla" }, "geometry": { "type": "Point", "coordinates": [ 100.554191, 6.815911 ] } },
{ "type": "Feature", "properties": { "time": "2026-04-16T05:00:00", "rain_24h_mm": 0.0, "station_name_en": null, "station_code": "STN1684", "lat": 6.705379, "lon": 100.742996, "district": "Na Thawi District", "subdistrict": "Na Thawi", "province": "Songkhla" }, "geometry": { "type": "Point", "coordinates": [ 100.742996, 6.705379 ] } },
{ "type": "Feature", "properties": { "time": "2026-04-16T05:00:00", "rain_24h_mm": 0.0, "station_name_en": null, "station_code": "STN1691", "lat": 6.644711, "lon": 100.734254, "district": "Na Thawi District", "subdistrict": "Sathon", "province": "Songkhla" }, "geometry": { "type": "Point", "coordinates": [ 100.734254, 6.644711 ] } },
{ "type": "Feature", "properties": { "time": "2026-04-16T05:00:00", "rain_24h_mm": 0.0, "station_name_en": null, "station_code": "STN1800", "lat": 6.77487, "lon": 100.422722, "district": "Sadao District", "subdistrict": "Tha Pho", "province": "Songkhla" }, "geometry": { "type": "Point", "coordinates": [ 100.422722, 6.77487 ] } },
{ "type": "Feature", "properties": { "time": "2026-04-16T05:50:00", "rain_24h_mm": 0.0, "station_name_en": null, "station_code": "TF45", "lat": 6.624953, "lon": 100.47444, "district": "Sadao District", "subdistrict": "Samnak Taeo", "province": "Songkhla" }, "geometry": { "type": "Point", "coordinates": [ 100.47444, 6.624953 ] } },
{ "type": "Feature", "properties": { "time": "2026-04-16T06:00:00", "rain_24h_mm": 0.0, "station_name_en": "Khlong U Taphao Bridge", "station_code": "ONE037", "lat": 7.134991, "lon": 100.45319, "district": "Hat Yai District", "subdistrict": "Khu Tao", "province": "Songkhla" }, "geometry": { "type": "Point", "coordinates": [ 100.45319, 7.134991 ] } },
{ "type": "Feature", "properties": { "time": "2026-04-16T06:00:00", "rain_24h_mm": 0.0, "station_name_en": "Wildlife Sanctuary of Ton Ngachang", "station_code": "MOU502", "lat": 6.943634, "lon": 100.250435, "district": "Hat Yai District", "subdistrict": "Thung Tam Sao", "province": "Songkhla" }, "geometry": { "type": "Point", "coordinates": [ 100.250435, 6.943634 ] } },
{ "type": "Feature", "properties": { "time": "2026-04-16T05:00:00", "rain_24h_mm": 0.0, "station_name_en": null, "station_code": "STN2060", "lat": 6.62954, "lon": 100.442957, "district": "Sadao District", "subdistrict": "Samnak Taeo", "province": "Songkhla" }, "geometry": { "type": "Point", "coordinates": [ 100.442957, 6.62954 ] } },
{ "type": "Feature", "properties": { "time": "2026-04-16T05:00:00", "rain_24h_mm": 0.0, "station_name_en": null, "station_code": "ridtele_STN01", "lat": 6.990953, "lon": 100.38278, "district": "Hat Yai District", "subdistrict": "Chalung", "province": "Songkhla" }, "geometry": { "type": "Point", "coordinates": [ 100.38278, 6.990953 ] } },
{ "type": "Feature", "properties": { "time": "2026-04-16T05:00:00", "rain_24h_mm": 0.0, "station_name_en": null, "station_code": "ridtele_STN10", "lat": 6.761329, "lon": 100.399158, "district": "Sadao District", "subdistrict": "Thung Mo", "province": "Songkhla" }, "geometry": { "type": "Point", "coordinates": [ 100.399158, 6.761329 ] } },
{ "type": "Feature", "properties": { "time": "2026-04-16T05:00:00", "rain_24h_mm": 0.0, "station_name_en": null, "station_code": "ridtele_STN11", "lat": 6.705239, "lon": 100.433266, "district": "Sadao District", "subdistrict": "Prik", "province": "Songkhla" }, "geometry": { "type": "Point", "coordinates": [ 100.433266, 6.705239 ] } },
{ "type": "Feature", "properties": { "time": "2026-04-16T05:00:00", "rain_24h_mm": 0.0, "station_name_en": null, "station_code": "ridtele_TSL24", "lat": 6.987824, "lon": 100.462205, "district": "Hat Yai District", "subdistrict": "Hat Yai", "province": "Songkhla" }, "geometry": { "type": "Point", "coordinates": [ 100.462205, 6.987824 ] } },
{ "type": "Feature", "properties": { "time": "2026-04-16T05:00:00", "rain_24h_mm": 0.0, "station_name_en": null, "station_code": "ridtele_TSL27", "lat": 7.008409, "lon": 100.442098, "district": "Hat Yai District", "subdistrict": "Khuan Lang", "province": "Songkhla" }, "geometry": { "type": "Point", "coordinates": [ 100.442098, 7.008409 ] } },
{ "type": "Feature", "properties": { "time": "2026-04-16T05:00:00", "rain_24h_mm": 0.0, "station_name_en": null, "station_code": "ridtele_TSL37", "lat": 6.817693, "lon": 100.553952, "district": "Hat Yai District", "subdistrict": "Phatong", "province": "Songkhla" }, "geometry": { "type": "Point", "coordinates": [ 100.553952, 6.817693 ] } },
{ "type": "Feature", "properties": { "time": "2026-04-16T05:00:00", "rain_24h_mm": 0.0, "station_name_en": null, "station_code": "ridtele_TSL38", "lat": 6.848806, "lon": 100.471146, "district": "Hat Yai District", "subdistrict": "Phatong", "province": "Songkhla" }, "geometry": { "type": "Point", "coordinates": [ 100.471146, 6.848806 ] } },
{ "type": "Feature", "properties": { "time": "2026-04-16T05:00:00", "rain_24h_mm": 0.0, "station_name_en": null, "station_code": "ridtele_TSL40", "lat": 6.987312, "lon": 100.474043, "district": "Hat Yai District", "subdistrict": "Kho Hong", "province": "Songkhla" }, "geometry": { "type": "Point", "coordinates": [ 100.474043, 6.987312 ] } },
{ "type": "Feature", "properties": { "time": "2026-04-16T05:00:00", "rain_24h_mm": 0.0, "station_name_en": null, "station_code": "STN2212", "lat": 6.974349, "lon": 100.397919, "district": "Hat Yai District", "subdistrict": "Khuan Lang", "province": "Songkhla" }, "geometry": { "type": "Point", "coordinates": [ 100.397919, 6.974349 ] } }
]
}
